#dP2018 11 14  0  0  0.00000000      96 __u+U ITR00 FIT  IAC
## 2027 259200.00000000   900.00000000 58436 0.0000000000000
+   90   C01C02C03C04C05C06C07C08C09C10C12C13C14E01E02E03E04
+        E05E07E08E09E11E12E14E18E19E21E24E25E26E27E30G01G02
+        G03G04G05G06G07G08G09G10G11G12G13G14G15G16G17G18G19
+        G20G21G22G23G24G25G26G27G28G29G30G31G32J01J02J03R01
+        R02R03R04R05R07R08R09R10R11R13R14R15R16R17R18R19R20
+        R21R22R23R24R26  0  0  0  0  0  0  0  0  0  0  0  0
++         0  0  0  0  0  0  0  0  0  0  0  0  0  0  0  0  0
++         0  0  0  0  0  0  0  0  0  0  0  0  0  0  0  0  0
++         0  0  0  0  0  0  0  0  0  0  0  0  0  0  0  0  0
++         0  0  0  0  0  0  0  0  0  0  0  0  0  0  0  0  0
++         0  0  0  0  0  0  0  0  0  0  0  0  0  0  0  0  0
++         0  0  0  0  0  0  0  0  0  0  0  0  0  0  0  0  0
%c M  cc GPS ccc cccc cccc cccc cccc ccccc ccccc ccccc ccccc
%c cc cc ccc ccc cccc cccc cccc cccc ccccc ccccc ccccc ccccc
%f  0.0000000  0.000000000  0.00000000000  0.000000000000000
%f  0.0000000  0.000000000  0.00000000000  0.000000000000000
%i    0    0    0    0      0      0      0      0         0
%i    0    0    0    0      0      0      0      0         0
/*                                                          
/*   RSA / INFORMATION & ANALYSIS CENTER (IAC) OF MCC       
/*   ULTRA-RAPID DETERMINATION                              
/* PCV:IGS14_2022 OL/AL:FES2004  NONE     YN ORB:CoN CLK:CoN
*  2018 11 14 16 30  0.00000000
PC01 -32296.635458  27094.166747   1018.753178   -113.860084
PC02   4328.182397  41942.763666   -857.255862    -99.119694
PC03 -14773.317817  39453.254757    360.879248    -57.223684
PC04 -39610.512418  14487.201883    497.591825    -14.428415
PC05  21823.179024  36043.447579  -1137.854710    136.805757
PC06  -8184.081151  30974.547333 -26956.344468     49.076656
PC07 -19103.441311  22109.706218  30375.652677   -142.602358
PC08 -22772.003802  35391.475242  -4370.219046     31.841456
PC09   4355.457211  39494.959620 -13403.265485    283.821147
PC10  -1401.952606  25725.359708  33533.905216   -238.109492
PC12  13182.920850 -17186.035119 -17475.976907    211.436097
PC13 -11157.016327  36476.600370 -18217.808153   -376.972044
PC14   -834.459717 -18499.536586  20941.592736    655.144935
PE01 -17508.075558  13805.687324  19475.660556   -477.839152
PE02  17472.525362 -13810.878686 -19486.174967     35.149593
PE03   7088.089446 -18136.139050  22285.634455    -99.655344
PE04   9373.158913  26482.288332  -9329.496357   -158.568169
PE05  19486.590726    874.448070  22260.465955    159.564085
PE07 -20446.864306 -19309.524386  -9217.017140    -75.300859
PE08  -9695.184911 -26361.986995   9317.602091   6462.959077
PE09  20576.086315  19177.725046   9245.304306   6617.878545
PE11  12898.824357  10720.247092 -24392.239392   5708.070219
PE12  -1787.733716  25702.046794 -14563.310782   5497.119087
PE14 -10927.699125  14147.763828  15439.874163   6489.585499
PE18  17435.372232 -14690.889442 -23077.038153   5756.605594
PE19  -8507.277792  16522.781306 -23040.756067    -10.638329
PE21 -29295.020328   3414.051923   2492.472370   -504.470824
PE24  23877.627599   8706.837859  15159.173303   6389.576633
PE25  29308.013342  -3377.798025  -2435.780026   1983.469126
PE26 -19749.023406   9977.927131  19672.355330   5248.987265
PE27 -23488.372179  -8875.548623 -15663.508589    590.544787
PE30  -4508.984768 -15945.151298 -24527.552415   5350.516159
PG01 -10450.604316  20666.796633 -12894.972864   -114.274855
PG02  21126.996575 -14133.479019  -6720.232518    -58.517298
PG03  -1107.453562  15526.086431 -21566.206648    160.239347
PG04 -15157.733178   2026.025611  21504.527271    -45.919939
PG05  20618.259779  -5436.422098  15839.984593     -0.203413
PG06  19536.567351   -933.253217 -17946.031926    333.602447
PG07   4322.858932  15784.986528  21071.717092     88.575290
PG08  -7644.150491  19146.777801  16699.447484   -122.167086
PG09   7326.820074  25381.975184   2674.444718    492.511986
PG10 -23837.976196 -11169.564219   4248.720115    164.303526
PG11  -8319.986362  25187.975810  -3377.124152   -699.880125
PG12   5973.827096 -13519.979790 -22258.682691    292.168409
PG13  12758.515737 -12056.230644  19809.626571    -84.486871
PG14 -15275.519410  -5084.323799 -20854.388583    -95.803324
PG15   4238.437151 -22021.417751  13676.502451   -339.800011
PG16 -21672.672214   1666.559966  15391.854955     -1.099722
PG17  13424.159326  15372.629410 -16659.518577    -31.523712
PG18 -16731.811535  20185.530464  -4175.371690     79.264698
PG19  15020.940946   4587.007705 -21692.803024   -383.768353
PG20 -18316.944873 -14022.566396  13146.907026    518.687850
PG21  -8290.638314 -13922.809280  21853.997053   -304.442586
PG22  -9630.525803  13428.551747 -20557.162435   -573.754017
PG23    983.133680  25535.241028  -6092.971267   -206.212792
PG24  13447.969745 -21234.595020  -8203.106303    -58.147878
PG25  -7527.893523 -16671.823520 -19525.346230   -676.738724
PG26 -25624.830866  -3249.061676   6523.860852     39.214881
PG27 -12865.360452   8888.501713  21342.080564    -18.016137
PG28  21455.838014  14358.641324   6701.497972    754.508071
PG29  -4233.009285 -26195.156250   1093.537269    336.254057
PG30  14410.224740   7925.811478  20902.691598     -4.710524
PG31 -21182.550919   3029.535854 -15986.340295     79.741823
PG32 -15268.371853 -12833.037342 -17549.046563   -357.267738
PJ01 -24001.843901  18583.158269 -24661.509699   -271.374344
PJ02 -30170.366641  27458.375492  15761.293822      0.817308
PJ03 -25672.703446  25912.993472  26162.601508      0.898806
PR01   7925.274088  18540.451336 -15638.932578     34.959457
PR02  18766.984769  16871.361027   3559.301746    339.503687
PR03  16887.795003   4588.594464  18570.943445    148.834828
PR04   4727.186565 -10649.848389  22701.323981    283.736566
PR05  -9544.025257 -19098.081931  13977.474829     15.448580
PR07 -16720.448143  -4308.326841 -18764.645748    -51.573436
PR08  -5339.386147  10083.475556 -22769.421344     20.474707
PR09 -18445.527568  -3970.973110 -17112.933077     38.653953
PR10 -24875.733829   4760.715049  -2661.202227     35.669723
PR11 -17255.224942  11607.529912  14760.226628    -47.059098
PR13  17884.748398   3905.071348  17755.619029    -16.830627
PR14  24898.582808  -4893.579501   2691.464863     32.996013
PR15  20598.917359 -10219.137846 -10917.840608    -19.159545
PR16    536.145770 -11444.374677 -22795.165770    106.390051
PR17  12054.376957  -5858.343076 -21683.414000    180.259599
PR18  10792.165267 -20751.003032 -10223.707814     27.203158
PR19   4189.823066 -24174.096981   6964.074564    -61.516940
PR20  -6003.525638 -12846.516608  21221.348621   -359.047594
PR21 -12061.172302   6463.758915  21536.501614    -14.470065
PR22 -10169.027127  21885.982754   8085.215329    -64.686149
PR23  -1349.639425  22880.254346 -11209.526220    190.669788
PR24   6911.378543  11447.769345 -21743.761481   -173.758553
PR26  -5537.767893 -14189.761354  20462.972811 999999.999999
EOF
